start=new Date('2023-05-14T00:00:00.000Z').valueOf();
sats=[{"NORAD_CAT_ID":"47811","TIME_SYSTEM":"UTC","TLE_LINE1":"1 47811U 21018AA  23133.41001469  .00016463  00000-0  11210-2 0  9997","OBJECT_NAME":"STARLINK-2392","CENTER_NAME":"EARTH","PERIOD":"95.591","FILE":"3906915","RCS_SIZE":"LARGE","ECCENTRICITY":"0.00014850","MEAN_ANOMALY":"239.6034","REF_FRAME":"TEME","RA_OF_ASC_NODE":"181.2034","SITE":"AFETR","MEAN_MOTION_DDOT":"0.0000000000000","MEAN_ELEMENT_THEORY":"SGP4","GP_ID":"231747078","INCLINATION":"53.0538","APOAPSIS":"548.187","EPHEMERIS_TYPE":"0","PERIAPSIS":"546.130","ARG_OF_PERICENTER":"120.5102","MEAN_MOTION":"15.06418057","EPOCH":"2023-05-13T09:50:25.269216","DECAY_DATE":null,"COUNTRY_CODE":"US","OBJECT_ID":"2021-018AA","OBJECT_TYPE":"PAYLOAD","BSTAR":"0.00112100000000","REV_AT_EPOCH":"12149","LAUNCH_DATE":"2021-03-11","ELEMENT_SET_NO":"999","MEAN_MOTION_DOT":"0.00016463","SEMIMAJOR_AXIS":"6925.293","CLASSIFICATION_TYPE":"U","TLE_LINE2":"2 47811  53.0538 181.2034 0001485 120.5102 239.6034 15.06418057121496"},{"BSTAR":"0.00103700000000","OBJECT_TYPE":"PAYLOAD","OBJECT_ID":"2021-018AB","COUNTRY_CODE":"US","DECAY_DATE":null,"EPOCH":"2023-05-13T13:55:54.259104","MEAN_MOTION":"15.06420694","TLE_LINE2":"2 47812  53.0529 210.4485 0001262  65.4961 294.6160 15.06420694121036","CLASSIFICATION_TYPE":"U","SEMIMAJOR_AXIS":"6925.285","MEAN_MOTION_DOT":"0.00015207","LAUNCH_DATE":"2021-03-11","ELEMENT_SET_NO":"999","REV_AT_EPOCH":"12103","MEAN_MOTION_DDOT":"0.0000000000000","SITE":"AFETR","RA_OF_ASC_NODE":"210.4485","MEAN_ANOMALY":"294.6160","REF_FRAME":"TEME","ECCENTRICITY":"0.00012620","RCS_SIZE":"LARGE","FILE":"3907148","CENTER_NAME":"EARTH","PERIOD":"95.591","OBJECT_NAME":"STARLINK-2393","TLE_LINE1":"1 47812U 21018AB  23133.58048911  .00015207  00000-0  10370-2 0  9990","TIME_SYSTEM":"UTC","NORAD_CAT_ID":"47812","ARG_OF_PERICENTER":"65.4961","EPHEMERIS_TYPE":"0","PERIAPSIS":"546.276","APOAPSIS":"548.024","INCLINATION":"53.0529","GP_ID":"231777549","MEAN_ELEMENT_THEORY":"SGP4"},{"SEMIMAJOR_AXIS":"6925.341","MEAN_MOTION_DOT":"0.00009930","LAUNCH_DATE":"2021-03-11","REV_AT_EPOCH":"12155","ELEMENT_SET_NO":"999","TLE_LINE2":"2 47813  53.0526 179.3203 0001139  72.0466 288.0647 15.06402406121557","CLASSIFICATION_TYPE":"U","DECAY_DATE":null,"EPOCH":"2023-05-13T19:55:30.479232","MEAN_MOTION":"15.06402406","BSTAR":"0.00068453000000","OBJECT_TYPE":"PAYLOAD","OBJECT_ID":"2021-018AC","COUNTRY_CODE":"US","APOAPSIS":"547.995","INCLINATION":"53.0526","GP_ID":"231778309","MEAN_ELEMENT_THEORY":"SGP4","ARG_OF_PERICENTER":"72.0466","EPHEMERIS_TYPE":"0","PERIAPSIS":"546.417","OBJECT_NAME":"STARLINK-2394","TLE_LINE1":"1 47813U 21018AC  23133.83021388  .00009930  00000-0  68453-3 0  9990","TIME_SYSTEM":"UTC","NORAD_CAT_ID":"47813","MEAN_MOTION_DDOT":"0.0000000000000","SITE":"AFETR","RA_OF_ASC_NODE":"179.3203","MEAN_ANOMALY":"288.0647","REF_FRAME":"TEME","ECCENTRICITY":"0.00011390","RCS_SIZE":"LARGE","FILE":"3907148","CENTER_NAME":"EARTH","PERIOD":"95.592"},{"MEAN_MOTION":"15.06430166","EPOCH":"2023-05-13T12:32:18.695904","DECAY_DATE":null,"COUNTRY_CODE":"US","OBJECT_ID":"2021-018AD","OBJECT_TYPE":"PAYLOAD","BSTAR":"0.00154800000000","ELEMENT_SET_NO":"999","LAUNCH_DATE":"2021-03-11","REV_AT_EPOCH":"12123","MEAN_MOTION_DOT":"0.00022870","SEMIMAJOR_AXIS":"6925.256","TLE_LINE2":"2 47814  53.0532 200.7107 0001359  75.1735 284.9405 15.06430166121230","CLASSIFICATION_TYPE":"U","NORAD_CAT_ID":"47814","TIME_SYSTEM":"UTC","TLE_LINE1":"1 47814U 21018AD  23133.52243861  .00022870  00000-0  15480-2 0  9998","OBJECT_NAME":"STARLINK-2395","CENTER_NAME":"EARTH","PERIOD":"95.590","ECCENTRICITY":"0.00013590","RCS_SIZE":"LARGE","FILE":"3907148","REF_FRAME":"TEME","MEAN_ANOMALY":"284.9405","RA_OF_ASC_NODE":"200.7107","SITE":"AFETR","MEAN_MOTION_DDOT":"0.0000000000000","MEAN_ELEMENT_THEORY":"SGP4","APOAPSIS":"548.062","INCLINATION":"53.0532","GP_ID":"231778545","EPHEMERIS_TYPE":"0","PERIAPSIS":"546.180","ARG_OF_PERICENTER":"75.1735"},{"MEAN_ELEMENT_THEORY":"SGP4","APOAPSIS":"548.137","INCLINATION":"53.0545","GP_ID":"231777807","EPHEMERIS_TYPE":"0","PERIAPSIS":"546.237","ARG_OF_PERICENTER":"81.3435","TIME_SYSTEM":"UTC","NORAD_CAT_ID":"47815","OBJECT_NAME":"STARLINK-2396","TLE_LINE1":"1 47815U 21018AE  23133.88595882  .00000622  00000-0  60651-4 0  9994","ECCENTRICITY":"0.00013720","RCS_SIZE":"LARGE","FILE":"3907148","CENTER_NAME":"EARTH","PERIOD":"95.592","SITE":"AFETR","MEAN_MOTION_DDOT":"0.0000000000000","RA_OF_ASC_NODE":"194.0781","MEAN_ANOMALY":"278.7709","REF_FRAME":"TEME","LAUNCH_DATE":"2021-03-11","REV_AT_EPOCH":"12129","ELEMENT_SET_NO":"999","SEMIMAJOR_AXIS":"6925.322","MEAN_MOTION_DOT":"0.00000622","TLE_LINE2":"2 47815  53.0545 194.0781 0001372  81.3435 278.7709 15.06408620121293","CLASSIFICATION_TYPE":"U","EPOCH":"2023-05-13T21:15:46.842048","MEAN_MOTION":"15.06408620","DECAY_DATE":null,"COUNTRY_CODE":"US","BSTAR":"0.00006065100000","OBJECT_TYPE":"PAYLOAD","OBJECT_ID":"2021-018AE"},{"CLASSIFICATION_TYPE":"U","TLE_LINE2":"2 47816  53.0532 199.0376 0001025  78.3360 281.7744 15.06406958121221","SEMIMAJOR_AXIS":"6925.327","MEAN_MOTION_DOT":"0.00014981","ELEMENT_SET_NO":"999","LAUNCH_DATE":"2021-03-11","REV_AT_EPOCH":"12122","BSTAR":"0.00102230000000","OBJECT_TYPE":"PAYLOAD","OBJECT_ID":"2021-018AF","COUNTRY_CODE":"US","DECAY_DATE":null,"EPOCH":"2023-05-13T21:28:23.600640","MEAN_MOTION":"15.06406958","ARG_OF_PERICENTER":"78.3360","EPHEMERIS_TYPE":"0","PERIAPSIS":"546.482","GP_ID":"231778050","INCLINATION":"53.0532","APOAPSIS":"547.902","MEAN_ELEMENT_THEORY":"SGP4","RA_OF_ASC_NODE":"199.0376","SITE":"AFETR","MEAN_MOTION_DDOT":"0.0000000000000","MEAN_ANOMALY":"281.7744","REF_FRAME":"TEME","RCS_SIZE":"LARGE","FILE":"3907148","ECCENTRICITY":"0.00010250","CENTER_NAME":"EARTH","PERIOD":"95.592","OBJECT_NAME":"STARLINK-2399","TLE_LINE1":"1 47816U 21018AF  23133.89471760  .00014981  00000-0  10223-2 0  9995","TIME_SYSTEM":"UTC","NORAD_CAT_ID":"47816"},{"EPOCH":"2023-05-13T12:21:40.069440","MEAN_MOTION":"15.06453185","DECAY_DATE":null,"COUNTRY_CODE":"US","BSTAR":"0.00229890000000","OBJECT_TYPE":"PAYLOAD","OBJECT_ID":"2021-018AG","LAUNCH_DATE":"2021-03-11","REV_AT_EPOCH":"12116","ELEMENT_SET_NO":"999","SEMIMAJOR_AXIS":"6925.186","MEAN_MOTION_DOT":"0.00034176","TLE_LINE2":"2 47817  53.0518 200.7407 0000966  69.2753 290.8339 15.06453185121167","CLASSIFICATION_TYPE":"U","TIME_SYSTEM":"UTC","NORAD_CAT_ID":"47817","OBJECT_NAME":"STARLINK-2400","TLE_LINE1":"1 47817U 21018AG  23133.51504710  .00034176  00000-0  22989-2 0  9997","ECCENTRICITY":"0.00009660","FILE":"3906915","RCS_SIZE":"LARGE","PERIOD":"95.589","CENTER_NAME":"EARTH","MEAN_MOTION_DDOT":"0.0000000000000","SITE":"AFETR","RA_OF_ASC_NODE":"200.7407","REF_FRAME":"TEME","MEAN_ANOMALY":"290.8339","MEAN_ELEMENT_THEORY":"SGP4","APOAPSIS":"547.720","GP_ID":"231745576","INCLINATION":"53.0518","EPHEMERIS_TYPE":"0","PERIAPSIS":"546.382","ARG_OF_PERICENTER":"69.2753"},{"TLE_LINE1":"1 47818U 21018AH  23133.60764883  .00023192  00000-0  15693-2 0  9997","OBJECT_NAME":"STARLINK-2401","NORAD_CAT_ID":"47818","TIME_SYSTEM":"UTC","MEAN_ANOMALY":"296.5000","REF_FRAME":"TEME","RA_OF_ASC_NODE":"205.3154","SITE":"AFETR","MEAN_MOTION_DDOT":"0.0000000000000","PERIOD":"95.590","CENTER_NAME":"EARTH","FILE":"3907148","RCS_SIZE":"LARGE","ECCENTRICITY":"0.00011260","INCLINATION":"53.0538","GP_ID":"231779046","APOAPSIS":"547.890","MEAN_ELEMENT_THEORY":"SGP4","ARG_OF_PERICENTER":"63.6104","EPHEMERIS_TYPE":"0","PERIAPSIS":"546.330","DECAY_DATE":null,"MEAN_MOTION":"15.06433771","EPOCH":"2023-05-13T14:35:00.858912","OBJECT_ID":"2021-018AH","OBJECT_TYPE":"PAYLOAD","BSTAR":"0.00156930000000","COUNTRY_CODE":"US","MEAN_MOTION_DOT":"0.00023192","SEMIMAJOR_AXIS":"6925.245","REV_AT_EPOCH":"12111","LAUNCH_DATE":"2021-03-11","ELEMENT_SET_NO":"999","CLASSIFICATION_TYPE":"U","TLE_LINE2":"2 47818  53.0538 205.3154 0001126  63.6104 296.5000 15.06433771121119"},{"PERIOD":"95.591","CENTER_NAME":"EARTH","RCS_SIZE":"LARGE","FILE":"3907060","ECCENTRICITY":"0.00009640","REF_FRAME":"TEME","MEAN_ANOMALY":"255.9454","MEAN_MOTION_DDOT":"0.0000000000000","SITE":"AFETR","RA_OF_ASC_NODE":"201.0156","NORAD_CAT_ID":"47819","TIME_SYSTEM":"UTC","TLE_LINE1":"1 47819U 21018AJ  23133.45145890  .00022229  00000-0  15055-2 0  9994","OBJECT_NAME":"STARLINK-2402","PERIAPSIS":"546.469","EPHEMERIS_TYPE":"0","ARG_OF_PERICENTER":"104.1643","MEAN_ELEMENT_THEORY":"SGP4","INCLINATION":"53.0524","GP_ID":"231754556","APOAPSIS":"547.804","COUNTRY_CODE":"US","OBJECT_ID":"2021-018AJ","OBJECT_TYPE":"PAYLOAD","BSTAR":"0.00150550000000","MEAN_MOTION":"15.06425031","EPOCH":"2023-05-13T10:50:06.048960","DECAY_DATE":null,"CLASSIFICATION_TYPE":"U","TLE_LINE2":"2 47819  53.0524 201.0156 0000964 104.1643 255.9454 15.06425031120838","LAUNCH_DATE":"2021-03-11","ELEMENT_SET_NO":"999","REV_AT_EPOCH":"12083","MEAN_MOTION_DOT":"0.00022229","SEMIMAJOR_AXIS":"6925.272"},{"TLE_LINE2":"2 47820  53.0542 209.0228 0000828  96.2406 263.8677 15.06413144121147","CLASSIFICATION_TYPE":"U","SEMIMAJOR_AXIS":"6925.308","MEAN_MOTION_DOT":"0.00005221","REV_AT_EPOCH":"12114","LAUNCH_DATE":"2021-03-11","ELEMENT_SET_NO":"999","BSTAR":"0.00036900000000","OBJECT_TYPE":"PAYLOAD","OBJECT_ID":"2021-018AK","COUNTRY_CODE":"US","DECAY_DATE":null,"EPOCH":"2023-05-13T21:32:22.117344","MEAN_MOTION":"15.06413144","ARG_OF_PERICENTER":"96.2406","PERIAPSIS":"546.600","EPHEMERIS_TYPE":"0","APOAPSIS":"547.747","INCLINATION":"53.0542","GP_ID":"231777550","MEAN_ELEMENT_THEORY":"SGP4","SITE":"AFETR","MEAN_MOTION_DDOT":"0.0000000000000","RA_OF_ASC_NODE":"209.0228","MEAN_ANOMALY":"263.8677","REF_FRAME":"TEME","ECCENTRICITY":"0.00008280","RCS_SIZE":"LARGE","FILE":"3907148","CENTER_NAME":"EARTH","PERIOD":"95.591","OBJECT_NAME":"STARLINK-2403","TLE_LINE1":"1 47820U 21018AK  23133.89747821  .00005221  00000-0  36900-3 0  9992","TIME_SYSTEM":"UTC","NORAD_CAT_ID":"47820"}];
